{"type": "FeatureCollection", "features": [ {"type": "Feature", "properties": {"norad_id": 34400, "name": "COSMOS 2251 DEB", "group": "cosmos-2251-debris", "lat": 40.94496367796084, "lon": 24.676837100469573, "alt_km": 397.70799678521144, "timestamp": "2025-12-18T15:47:11.619625+00:00", "meta": {"OBJECT_NAME": "COSMOS 2251 DEB", "OBJECT_ID": "1993-036QR", "EPOCH": "2025-12-18T03:15:25.731072", "MEAN_MOTION": 15.55840904, "ECCENTRICITY": 0.00036631, "INCLINATION": 73.9636, "RA_OF_ASC_NODE": 11.3857, "ARG_OF_PERICENTER": 253.6507, "MEAN_ANOMALY": 106.4306, "EPHEMERIS_TYPE": 0, "CLASSIFICATION_TYPE": "U", "NORAD_CAT_ID": 34400, "ELEMENT_SET_NO": 999, "REV_AT_EPOCH": 90058, "BSTAR": 0.0030613068, "MEAN_MOTION_DOT": 0.00217748, "MEAN_MOTION_DDOT": 0}, "tle": {"line1": "1 34400U 93036QR  25352.13571448  .00217748  00000+0  30613-2 0  9995", "line2": "2 34400  73.9636  11.3857 0003663 253.6507 106.4306 15.55840904900581"}}, "geometry": {"type": "Point", "coordinates": [24.676837100469573, 40.94496367796084]}}, {"type": "Feature", "properties": {"norad_id": 34409, "name": "COSMOS 2251 DEB", "group": "cosmos-2251-debris", "lat": 47.73339828603958, "lon": -46.07800439691498, "alt_km": 652.5920880210215, "timestamp": "2025-12-18T15:47:11.619635+00:00", "meta": {"OBJECT_NAME": "COSMOS 2251 DEB", "OBJECT_ID": "1993-036RA", "EPOCH": "2025-12-17T21:41:58.187616", "MEAN_MOTION": 14.58039798, "ECCENTRICITY": 0.0080077, "INCLINATION": 74.0633, "RA_OF_ASC_NODE": 297.0287, "ARG_OF_PERICENTER": 9.9996, "MEAN_ANOMALY": 45.6552, "EPHEMERIS_TYPE": 0, "CLASSIFICATION_TYPE": "U", "NORAD_CAT_ID": 34409, "ELEMENT_SET_NO": 999, "REV_AT_EPOCH": 89268, "BSTAR": 0.00021398516, "MEAN_MOTION_DOT": 9.97e-06, "MEAN_MOTION_DDOT": 0}, "tle": {"line1": "1 34409U 93036RA  25351.90414569  .00000997  00000+0  21399-3 0  9996", "line2": "2 34409  74.0633 297.0287 0080077   9.9996  45.6552 14.58039798892688"}}, "geometry": {"type": "Point", "coordinates": [-46.07800439691498, 47.73339828603958]}}, {"type": "Feature", "properties": {"norad_id": 34410, "name": "COSMOS 2251 DEB", "group": "cosmos-2251-debris", "lat": -46.68664677870635, "lon": -128.91138199396372, "alt_km": 525.1133089169234, "timestamp": "2025-12-18T15:47:11.619646+00:00", "meta": {"OBJECT_NAME": "COSMOS 2251 DEB", "OBJECT_ID": "1993-036RB", "EPOCH": "2025-12-18T04:01:06.668256", "MEAN_MOTION": 15.19431364, "ECCENTRICITY": 0.00217502, "INCLINATION": 73.7382, "RA_OF_ASC_NODE": 250.1696, "ARG_OF_PERICENTER": 90.5505, "MEAN_ANOMALY": 59.406, "EPHEMERIS_TYPE": 0, "CLASSIFICATION_TYPE": "U", "NORAD_CAT_ID": 34410, "ELEMENT_SET_NO": 999, "REV_AT_EPOCH": 89856, "BSTAR": 0.001822973, "MEAN_MOTION_DOT": 0.00039045, "MEAN_MOTION_DDOT": 0}, "tle": {"line1": "1 34410U 93036RB  25352.16743829  .00039045  00000+0  18230-2 0  9996", "line2": "2 34410  73.7382 250.1696 0021750  90.5505  59.4060 15.19431364898569"}}, "geometry": {"type": "Point", "coordinates": [-128.91138199396372, -46.68664677870635]}}, {"type": "Feature", "properties": {"norad_id": 34412, "name": "COSMOS 2251 DEB", "group": "cosmos-2251-debris", "lat": 26.390378618952024, "lon": -38.305987872886796, "alt_km": 607.6660785062668, "timestamp": "2025-12-18T15:47:11.619656+00:00", "meta": {"OBJECT_NAME": "COSMOS 2251 DEB", "OBJECT_ID": "1993-036RD", "EPOCH": "2025-12-16T22:11:15.590400", "MEAN_MOTION": 14.47183613, "ECCENTRICITY": 0.01873009, "INCLINATION": 73.9482, "RA_OF_ASC_NODE": 316.739, "ARG_OF_PERICENTER": 50.8456, "MEAN_ANOMALY": 310.9177, "EPHEMERIS_TYPE": 0, "CLASSIFICATION_TYPE": "U", "NORAD_CAT_ID": 34412, "ELEMENT_SET_NO": 999, "REV_AT_EPOCH": 87711, "BSTAR": 0.0011553143, "MEAN_MOTION_DOT": 5.23e-05, "MEAN_MOTION_DDOT": 0}, "tle": {"line1": "1 34412U 93036RD  25350.92448600  .00005230  00000+0  11553-2 0  9999", "line2": "2 34412  73.9482 316.7390 0187300  50.8456 310.9177 14.47183613877115"}}, "geometry": {"type": "Point", "coordinates": [-38.305987872886796, 26.390378618952024]}}, {"type": "Feature", "properties": {"norad_id": 34413, "name": "COSMOS 2251 DEB", "group": "cosmos-2251-debris", "lat": 41.627993637378495, "lon": 59.38682621719395, "alt_km": 854.3559975920643, "timestamp": "2025-12-18T15:47:11.619667+00:00", "meta": {"OBJECT_NAME": "COSMOS 2251 DEB", "OBJECT_ID": "1993-036RE", "EPOCH": "2025-12-18T04:09:17.225856", "MEAN_MOTION": 14.29139154, "ECCENTRICITY": 0.00909571, "INCLINATION": 74.031, "RA_OF_ASC_NODE": 255.0094, "ARG_OF_PERICENTER": 330.4828, "MEAN_ANOMALY": 192.9704, "EPHEMERIS_TYPE": 0, "CLASSIFICATION_TYPE": "U", "NORAD_CAT_ID": 34413, "ELEMENT_SET_NO": 999, "REV_AT_EPOCH": 87208, "BSTAR": 0.0011594105, "MEAN_MOTION_DOT": 3.05e-05, "MEAN_MOTION_DDOT": 0}, "tle": {"line1": "1 34413U 93036RE  25352.17311604  .00003050  00000+0  11594-2 0  9995", "line2": "2 34413  74.0310 255.0094 0090957 330.4828 192.9704 14.29139154872081"}}, "geometry": {"type": "Point", "coordinates": [59.38682621719395, 41.627993637378495]}}, {"type": "Feature", "properties": {"norad_id": 34420, "name": "COSMOS 2251 DEB", "group": "cosmos-2251-debris", "lat": -15.649360448281788, "lon": 87.91237259384825, "alt_km": 720.2082838044644, "timestamp": "2025-12-18T15:47:11.619677+00:00", "meta": {"OBJECT_NAME": "COSMOS 2251 DEB", "OBJECT_ID": "1993-036RM", "EPOCH": "2025-12-17T17:39:36.627840", "MEAN_MOTION": 14.68312364, "ECCENTRICITY": 0.01064315, "INCLINATION": 74.0332, "RA_OF_ASC_NODE": 94.2953, "ARG_OF_PERICENTER": 214.2609, "MEAN_ANOMALY": 297.39, "EPHEMERIS_TYPE": 0, "CLASSIFICATION_TYPE": "U", "NORAD_CAT_ID": 34420, "ELEMENT_SET_NO": 999, "REV_AT_EPOCH": 89843, "BSTAR": 0.00019316271, "MEAN_MOTION_DOT": 1.179e-05, "MEAN_MOTION_DDOT": 0}, "tle": {"line1": "1 34420U 93036RM  25351.73584060  .00001179  00000+0  19316-3 0  9993", "line2": "2 34420  74.0332  94.2953 0106431 214.2609 297.3900 14.68312364898435"}}, "geometry": {"type": "Point", "coordinates": [87.91237259384825, -15.649360448281788]}}, {"type": "Feature", "properties": {"norad_id": 34425, "name": "COSMOS 2251 DEB", "group": "cosmos-2251-debris", "lat": -56.92299284899487, "lon": 17.071659379644228, "alt_km": 704.3422576423209, "timestamp": "2025-12-18T15:47:11.619688+00:00", "meta": {"OBJECT_NAME": "COSMOS 2251 DEB", "OBJECT_ID": "1993-036RS", "EPOCH": "2025-12-18T06:12:43.845120", "MEAN_MOTION": 14.62158963, "ECCENTRICITY": 0.0024513, "INCLINATION": 74.0198, "RA_OF_ASC_NODE": 43.9379, "ARG_OF_PERICENTER": 168.9655, "MEAN_ANOMALY": 191.2055, "EPHEMERIS_TYPE": 0, "CLASSIFICATION_TYPE": "U", "NORAD_CAT_ID": 34425, "ELEMENT_SET_NO": 999, "REV_AT_EPOCH": 88821, "BSTAR": 0.00041926152, "MEAN_MOTION_DOT": 2.088e-05, "MEAN_MOTION_DDOT": 0}, "tle": {"line1": "1 34425U 93036RS  25352.25884080  .00002088  00000+0  41926-3 0  9993", "line2": "2 34425  74.0198  43.9379 0024513 168.9655 191.2055 14.62158963888214"}}, "geometry": {"type": "Point", "coordinates": [17.071659379644228, -56.92299284899487]}}, {"type": "Feature", "properties": {"norad_id": 34429, "name": "COSMOS 2251 DEB", "group": "cosmos-2251-debris", "lat": -73.6324980119647, "lon": 76.85563152673265, "alt_km": 440.3204254084103, "timestamp": "2025-12-18T15:47:11.619698+00:00", "meta": {"OBJECT_NAME": "COSMOS 2251 DEB", "OBJECT_ID": "1993-036RW", "EPOCH": "2025-12-17T22:09:16.317792", "MEAN_MOTION": 15.43689289, "ECCENTRICITY": 0.00097349, "INCLINATION": 73.9679, "RA_OF_ASC_NODE": 156.7189, "ARG_OF_PERICENTER": 356.1191, "MEAN_ANOMALY": 155.9719, "EPHEMERIS_TYPE": 0, "CLASSIFICATION_TYPE": "U", "NORAD_CAT_ID": 34429, "ELEMENT_SET_NO": 999, "REV_AT_EPOCH": 89528, "BSTAR": 0.004047649, "MEAN_MOTION_DOT": 0.00187409, "MEAN_MOTION_DDOT": 0}, "tle": {"line1": "1 34429U 93036RW  25351.92310553  .00187409  00000+0  40476-2 0  9998", "line2": "2 34429  73.9679 156.7189 0009734 356.1191 155.9719 15.43689289895285"}}, "geometry": {"type": "Point", "coordinates": [76.85563152673265, -73.6324980119647]}}, {"type": "Feature", "properties": {"norad_id": 34430, "name": "COSMOS 2251 DEB", "group": "cosmos-2251-debris", "lat": -37.12584426670826, "lon": -80.05872898530819, "alt_km": 732.1478155921695, "timestamp": "2025-12-18T15:47:11.619708+00:00", "meta": {"OBJECT_NAME": "COSMOS 2251 DEB", "OBJECT_ID": "1993-036RX", "EPOCH": "2025-12-18T05:57:30.095136", "MEAN_MOTION": 14.39649252, "ECCENTRICITY": 0.00606121, "INCLINATION": 74.0515, "RA_OF_ASC_NODE": 293.1984, "ARG_OF_PERICENTER": 1.5192, "MEAN_ANOMALY": 358.6135, "EPHEMERIS_TYPE": 0, "CLASSIFICATION_TYPE": "U", "NORAD_CAT_ID": 34430, "ELEMENT_SET_NO": 999, "REV_AT_EPOCH": 88034, "BSTAR": 0.00039509635, "MEAN_MOTION_DOT": 1.236e-05, "MEAN_MOTION_DDOT": 0}, "tle": {"line1": "1 34430U 93036RX  25352.24826499  .00001236  00000+0  39510-3 0  9998", "line2": "2 34430  74.0515 293.1984 0060612   1.5192 358.6135 14.39649252880346"}}, "geometry": {"type": "Point", "coordinates": [-80.05872898530819, -37.12584426670826]}}, {"type": "Feature", "properties": {"norad_id": 34431, "name": "COSMOS 2251 DEB", "group": "cosmos-2251-debris", "lat": -7.791281365499512, "lon": 162.24833848472946, "alt_km": 844.0912424722319, "timestamp": "2025-12-18T15:47:11.619718+00:00", "meta": {"OBJECT_NAME": "COSMOS 2251 DEB", "OBJECT_ID": "1993-036RY", "EPOCH": "2025-12-17T21:20:24.797760", "MEAN_MOTION": 14.28791763, "ECCENTRICITY": 0.00680495, "INCLINATION": 74.0737, "RA_OF_ASC_NODE": 165.8783, "ARG_OF_PERICENTER": 150.2147, "MEAN_ANOMALY": 210.2904, "EPHEMERIS_TYPE": 0, "CLASSIFICATION_TYPE": "U", "NORAD_CAT_ID": 34431, "ELEMENT_SET_NO": 999, "REV_AT_EPOCH": 87216, "BSTAR": 0.00058620739, "MEAN_MOTION_DOT": 1.489e-05, "MEAN_MOTION_DDOT": 0}, "tle": {"line1": "1 34431U 93036RY  25351.88917590  .00001489  00000+0  58621-3 0  9995", "line2": "2 34431  74.0737 165.8783 0068049 150.2147 210.2904 14.28791763872160"}}, "geometry": {"type": "Point", "coordinates": [162.24833848472946, -7.791281365499512]}}]}